CENTISPACE-1 S5         
1 54020U 22126A   26204.84071252  .00000731  00000+0  17798-3 0  9992
2 54020  54.9992  66.2776 0013900 141.2775 218.9218 14.63069039202405
CENTISPACE-1 S6         
1 54021U 22126B   26204.78396010  .00000495  00000+0  13432-3 0  9996
2 54021  54.9994  68.5423 0015671 142.6516 217.5570 14.62326618202355
OTB-3-GAZELLE           
1 54023U 22127A   26204.40220134  .00000147  00000+0  57043-4 0  9992
2 54023  98.3967 195.5590 0014457  80.3435 279.9387 14.42686343199584
ASO-S                   
1 54029U 22129A   26204.84375222  .00000197  00000+0  59736-4 0  9993
2 54029  98.2768 209.4016 0013911 345.8565  14.2239 14.52078041200741
HJ-2E                   
1 54035U 22132A   26204.89130763  .00008911  00000+0  38247-3 0  9993
2 54035  97.3812 208.6204 0018399 236.6789 123.2687 15.22785259210000
COSMOS 2561             
1 54109U 22137A   26204.84539593  .00014545  00000+0  23816-3 0  9995
2 54109  96.9165 262.4926 0008354 241.6006 118.4407 15.52545062212035
GONETS-M 23             
1 54150U 22139A   26204.88887721  .00000039  00000+0  20677-3 0  9991
2 54150  82.5096 325.4871 0022424 140.2572 220.0156 12.42892308170207
GONETS-M 24             
1 54151U 22139B   26204.78143438  .00000016  00000+0  40056-4 0  9990
2 54151  82.5017 324.5886 0017538 150.0911 210.1175 12.42892668170191
GONETS-M 25             
1 54152U 22139C   26204.84837942  .00000027  00000+0  12042-3 0  9993
2 54152  82.5077 325.2531 0021462 148.8197 211.4161 12.42891140170200
SKIF-D                  
1 54153U 22139D   26204.03176279 -.00000011  00000+0  00000+0 0  9995
2 54153  89.9487  96.6577 0007492 184.1459 175.9198  5.00433848 65904
MATS                    
1 54227U 22147A   26204.47278007  .00002917  00000+0  20657-3 0  9996
2 54227  97.6844 205.9181 0014352  78.7368 281.5471 15.05541991203227
EOS-6 (OCEANSAT-3)      
1 54361U 22158A   26204.88097282  .00000218  00000+0  72024-4 0  9994
2 54361  98.3550 302.5896 0000901 151.8088 208.3154 14.46987999193142
DONGPO 09               
1 54685U 22167D   26204.87442881  .00012995  00000+0  36021-3 0  9992
2 54685  97.6926  17.5470 0002165  30.9480 329.1891 15.37087067201089
DONGPO 08               
1 54686U 22167E   26204.85489832  .00011267  00000+0  34111-3 0  9997
2 54686  97.6891  14.5288 0008790  47.2193 312.9787 15.34318224200944
DONGPO 10               
1 54689U 22167H   26204.84209338  .00011766  00000+0  34729-3 0  9999
2 54689  97.6972  16.5540 0004237 358.9407   1.1826 15.35137862200985
JILIN-1 GAOFEN 03D48    
1 54695U 22167P   26204.82111811  .00012509  00000+0  35973-3 0  9990
2 54695  97.6907  15.9233 0005680   0.1601 359.9642 15.35935217201012
STAR VIBE               
1 55009U 23001A   26204.80883870  .00015762  00000+0  35283-3 0  9995
2 55009  97.3151 269.4401 0004543   0.9768 359.1488 15.43536687197877
BRO-8                   
1 55011U 23001C   26204.84261773  .00041424  00000+0  70701-3 0  9992
2 55011  97.3181 270.6063 0004001   4.9907 355.1385 15.51210673197885
CONNECTA T1.2           
1 55012U 23001D   26204.85413225  .00046351  00000+0  72927-3 0  9991
2 55012  97.3236 276.2611 0003414 320.3870  39.7134 15.53465330198230
BIRKELAND               
1 55015U 23001G   26204.84962223  .00009353  00000+0  23145-3 0  9999
2 55015  97.3329 272.9239 0005412 349.1585  10.9544 15.40647820197997
ION SCV-008             
1 55051U 23001AU  26204.69565672  .00007206  00000+0  25836-3 0  9993
2 55051  97.5713 301.6358 0013441 239.8488 120.1420 15.28956729196911
ION SCV-007             
1 55060U 23001BD  26204.15722043  .00000342  00000+0  55031-4 0  9996
2 55060  97.8985 266.4551 0011532 214.1371 145.9099 14.77581247191569
HUYGENS                 
1 55093U 23001CN  26204.84970192  .00009930  00000+0  24543-3 0  9993
2 55093  97.3232 272.1059 0007578 317.6163  42.4497 15.40651617198015
SHARJAHSAT-1            
1 55104U 23001CZ  26204.85235358  .00024082  00000+0  42484-3 0  9994
2 55104  97.3142 274.1566 0003899 347.3750  12.7404 15.50382481198173
HORUS 1                 
1 55690U 23025A   26204.87030360  .00006075  00000+0  25901-3 0  9995
2 55690  97.3448 278.6923 0001822 113.4047 246.7382 15.23298023189636
HORUS 2                 
1 55844U 23032A   26204.84059905  .00006048  00000+0  25698-3 0  9990
2 55844  97.3521 279.5020 0001653 134.5586 225.5786 15.23412444187064
GLOBAL-19               
1 55982U 23041B   26204.77812919  .00013616  00000+0  35183-3 0  9996
2 55982  42.0029 348.3702 0010441 271.3080  88.6564 15.38867005187563
ION SCV-010             
1 56192U 23054Q   26204.61032278  .00004600  00000+0  17865-3 0  9999
2 56192  97.3731  93.6444 0014577  78.1029 282.1843 15.26480387181750
TELEOS-2                
1 56310U 23057C   26204.74760027  .00005719  00000+0  43154-3 0  9990
2 56310   9.9893 297.9838 0000892 279.2839  80.7273 14.96425332178282
SNIPE 4                 
1 56744U 23072B   26204.85400794  .00024961  00000+0  55426-3 0  9997
2 56744  97.5229  52.0540 0005616 174.4250 185.7062 15.43679826175765
SNIPE 2                 
1 56745U 23072C   26204.84969417  .00032975  00000+0  61777-3 0  9999
2 56745  97.5217  55.3591 0004044 195.4842 164.6285 15.48604971175913
