OBJECT_NAME,OBJECT_ID,EPOCH,MEAN_MOTION,ECCENTRICITY,INCLINATION,RA_OF_ASC_NODE,ARG_OF_PERICENTER,MEAN_ANOMALY,EPHEMERIS_TYPE,CLASSIFICATION_TYPE,NORAD_CAT_ID,ELEMENT_SET_NO,REV_AT_EPOCH,BSTAR,MEAN_MOTION_DOT,MEAN_MOTION_DDOT
CENTISPACE-1 S5,2022-126A,2026-07-23T20:10:37.561728,14.63069039,.00139,54.9992,66.2776,141.2775,218.9218,0,U,54020,999,20240,.17798E-3,.731E-5,0
CENTISPACE-1 S6,2022-126B,2026-07-23T18:48:54.152640,14.62326618,.0015671,54.9994,68.5423,142.6516,217.5570,0,U,54021,999,20235,.13432E-3,.495E-5,0
OTB-3-GAZELLE,2022-127A,2026-07-23T09:39:10.195776,14.42686343,.0014457,98.3967,195.5590,80.3435,279.9387,0,U,54023,999,19958,.57043E-4,.147E-5,0
ASO-S,2022-129A,2026-07-23T20:15:00.191808,14.52078041,.0013911,98.2768,209.4016,345.8565,14.2239,0,U,54029,999,20074,.59736E-4,.197E-5,0
HJ-2E,2022-132A,2026-07-23T21:23:28.979232,15.22785259,.0018399,97.3812,208.6204,236.6789,123.2687,0,U,54035,999,21000,.38247E-3,.8911E-4,0
COSMOS 2561,2022-137A,2026-07-23T20:17:22.208352,15.52545062,.0008354,96.9165,262.4926,241.6006,118.4407,0,U,54109,999,21203,.23816E-3,.14545E-3,0
GONETS-M 23,2022-139A,2026-07-23T21:19:58.990944,12.42892308,.0022424,82.5096,325.4871,140.2572,220.0156,0,U,54150,999,17020,.20677E-3,.39E-6,0
GONETS-M 24,2022-139B,2026-07-23T18:45:15.930432,12.42892668,.0017538,82.5017,324.5886,150.0911,210.1175,0,U,54151,999,17019,.40056E-4,.16E-6,0
GONETS-M 25,2022-139C,2026-07-23T20:21:39.981888,12.42891140,.0021462,82.5077,325.2531,148.8197,211.4161,0,U,54152,999,17020,.12042E-3,.27E-6,0
SKIF-D,2022-139D,2026-07-23T00:45:44.305056,5.00433848,.0007492,89.9487,96.6577,184.1459,175.9198,0,U,54153,999,6590,0,-.11E-6,0
MATS,2022-147A,2026-07-23T11:20:48.198048,15.05541991,.0014352,97.6844,205.9181,78.7368,281.5471,0,U,54227,999,20322,.20657E-3,.2917E-4,0
EOS-6 (OCEANSAT-3),2022-158A,2026-07-23T21:08:36.051648,14.46987999,.0000901,98.3550,302.5896,151.8088,208.3154,0,U,54361,999,19314,.72024E-4,.218E-5,0
DONGPO 09,2022-167D,2026-07-23T20:59:10.649184,15.37087067,.0002165,97.6926,17.5470,30.9480,329.1891,0,U,54685,999,20108,.36021E-3,.12995E-3,0
DONGPO 08,2022-167E,2026-07-23T20:31:03.214848,15.34318224,.000879,97.6891,14.5288,47.2193,312.9787,0,U,54686,999,20094,.34111E-3,.11267E-3,0
DONGPO 10,2022-167H,2026-07-23T20:12:36.868032,15.35137862,.0004237,97.6972,16.5540,358.9407,1.1826,0,U,54689,999,20098,.34729E-3,.11766E-3,0
JILIN-1 GAOFEN 03D48,2022-167P,2026-07-23T19:42:24.604704,15.35935217,.000568,97.6907,15.9233,0.1601,359.9642,0,U,54695,999,20101,.35973E-3,.12509E-3,0
STAR VIBE,2023-001A,2026-07-23T19:24:43.663680,15.43536687,.0004543,97.3151,269.4401,0.9768,359.1488,0,U,55009,999,19787,.35283E-3,.15762E-3,0
BRO-8,2023-001C,2026-07-23T20:13:22.171872,15.51210673,.0004001,97.3181,270.6063,4.9907,355.1385,0,U,55011,999,19788,.70701E-3,.41424E-3,0
CONNECTA T1.2,2023-001D,2026-07-23T20:29:57.026400,15.53465330,.0003414,97.3236,276.2611,320.3870,39.7134,0,U,55012,999,19823,.72927E-3,.46351E-3,0
BIRKELAND,2023-001G,2026-07-23T20:23:27.360672,15.40647820,.0005412,97.3329,272.9239,349.1585,10.9544,0,U,55015,999,19799,.23145E-3,.9353E-4,0
ION SCV-008,2023-001AU,2026-07-23T16:41:44.740608,15.28956729,.0013441,97.5713,301.6358,239.8488,120.1420,0,U,55051,999,19691,.25836E-3,.7206E-4,0
ION SCV-007,2023-001BD,2026-07-23T03:46:23.845152,14.77581247,.0011532,97.8985,266.4551,214.1371,145.9099,0,U,55060,999,19156,.55031E-4,.342E-5,0
HUYGENS,2023-001CN,2026-07-23T20:23:34.245888,15.40651617,.0007578,97.3232,272.1059,317.6163,42.4497,0,U,55093,999,19801,.24543E-3,.993E-4,0
SHARJAHSAT-1,2023-001CZ,2026-07-23T20:27:23.349312,15.50382481,.0003899,97.3142,274.1566,347.3750,12.7404,0,U,55104,999,19817,.42484E-3,.24082E-3,0
HORUS 1,2023-025A,2026-07-23T20:53:14.231040,15.23298023,.0001822,97.3448,278.6923,113.4047,246.7382,0,U,55690,999,18963,.25901E-3,.6075E-4,0
HORUS 2,2023-032A,2026-07-23T20:10:27.757920,15.23412444,.0001653,97.3521,279.5020,134.5586,225.5786,0,U,55844,999,18706,.25698E-3,.6048E-4,0
GLOBAL-19,2023-041B,2026-07-23T18:40:30.362016,15.38867005,.0010441,42.0029,348.3702,271.3080,88.6564,0,U,55982,999,18756,.35183E-3,.13616E-3,0
ION SCV-010,2023-054Q,2026-07-23T14:38:51.888192,15.26480387,.0014577,97.3731,93.6444,78.1029,282.1843,0,U,56192,999,18175,.17865E-3,.46E-4,0
TELEOS-2,2023-057C,2026-07-23T17:56:32.663328,14.96425332,.0000892,9.9893,297.9838,279.2839,80.7273,0,U,56310,999,17828,.43154E-3,.5719E-4,0
SNIPE 4,2023-072B,2026-07-23T20:29:46.286016,15.43679826,.0005616,97.5229,52.0540,174.4250,185.7062,0,U,56744,999,17576,.55426E-3,.24961E-3,0
SNIPE 2,2023-072C,2026-07-23T20:23:33.576288,15.48604971,.0004044,97.5217,55.3591,195.4842,164.6285,0,U,56745,999,17591,.61777E-3,.32975E-3,0
